{"type": "FeatureCollection", "features": [ {"type": "Feature", "properties": {"norad_id": 30996, "name": "FENGYUN 1C DEB", "group": "fengyun-1c-debris", "lat": -80.54837261733381, "lon": 15.605401075421362, "alt_km": 747.1055692307527, "timestamp": "2025-12-27T04:40:45.785433+00:00", "meta": {"OBJECT_NAME": "FENGYUN 1C DEB", "OBJECT_ID": "1999-025BCN", "EPOCH": "2025-12-25T16:27:19.582848", "MEAN_MOTION": 14.35474873, "ECCENTRICITY": 0.00494939, "INCLINATION": 98.9435, "RA_OF_ASC_NODE": 265.1161, "ARG_OF_PERICENTER": 253.3261, "MEAN_ANOMALY": 138.0612, "EPHEMERIS_TYPE": 0, "CLASSIFICATION_TYPE": "U", "NORAD_CAT_ID": 30996, "ELEMENT_SET_NO": 999, "REV_AT_EPOCH": 97749, "BSTAR": 0.00088809338, "MEAN_MOTION_DOT": 2.542e-05, "MEAN_MOTION_DDOT": 0}, "tle": {"line1": "1 30996U 99025BCN 25359.68564332  .00002542  00000+0  88809-3 0  9991", "line2": "2 30996  98.9435 265.1161 0049493 253.3261 138.0612 14.35474873977493"}}, "geometry": {"type": "Point", "coordinates": [15.605401075421362, -80.54837261733381]}}, {"type": "Feature", "properties": {"norad_id": 30998, "name": "FENGYUN 1C DEB", "group": "fengyun-1c-debris", "lat": -33.66335512182086, "lon": -100.626401467114, "alt_km": 733.0520363496853, "timestamp": "2025-12-27T04:40:45.785443+00:00", "meta": {"OBJECT_NAME": "FENGYUN 1C DEB", "OBJECT_ID": "1999-025BCQ", "EPOCH": "2025-12-25T22:08:06.167040", "MEAN_MOTION": 14.4812188, "ECCENTRICITY": 0.0012703, "INCLINATION": 98.8285, "RA_OF_ASC_NODE": 83.9861, "ARG_OF_PERICENTER": 159.9387, "MEAN_ANOMALY": 262.9391, "EPHEMERIS_TYPE": 0, "CLASSIFICATION_TYPE": "U", "NORAD_CAT_ID": 30998, "ELEMENT_SET_NO": 999, "REV_AT_EPOCH": 97381, "BSTAR": 0.0024208, "MEAN_MOTION_DOT": 8.985e-05, "MEAN_MOTION_DDOT": 0}, "tle": {"line1": "1 30998U 99025BCQ 25359.92229360  .00008985  00000+0  24208-2 0  9998", "line2": "2 30998  98.8285  83.9861 0012703 159.9387 262.9391 14.48121880973818"}}, "geometry": {"type": "Point", "coordinates": [-100.626401467114, -33.66335512182086]}}, {"type": "Feature", "properties": {"norad_id": 30999, "name": "FENGYUN 1C DEB", "group": "fengyun-1c-debris", "lat": 28.890216176561985, "lon": 1.3484393245034991, "alt_km": 760.2613704839296, "timestamp": "2025-12-27T04:40:45.785454+00:00", "meta": {"OBJECT_NAME": "FENGYUN 1C DEB", "OBJECT_ID": "1999-025BCR", "EPOCH": "2025-12-25T10:49:13.395936", "MEAN_MOTION": 14.58489282, "ECCENTRICITY": 0.0112594, "INCLINATION": 99.0916, "RA_OF_ASC_NODE": 174.3725, "ARG_OF_PERICENTER": 299.2705, "MEAN_ANOMALY": 59.7274, "EPHEMERIS_TYPE": 0, "CLASSIFICATION_TYPE": "U", "NORAD_CAT_ID": 30999, "ELEMENT_SET_NO": 999, "REV_AT_EPOCH": 99016, "BSTAR": 0.00066851, "MEAN_MOTION_DOT": 3.327e-05, "MEAN_MOTION_DDOT": 0}, "tle": {"line1": "1 30999U 99025BCR 25359.45084949  .00003327  00000+0  66851-3 0  9995", "line2": "2 30999  99.0916 174.3725 0112594 299.2705  59.7274 14.58489282990161"}}, "geometry": {"type": "Point", "coordinates": [1.3484393245034991, 28.890216176561985]}}, {"type": "Feature", "properties": {"norad_id": 31000, "name": "FENGYUN 1C DEB", "group": "fengyun-1c-debris", "lat": 44.061268686592285, "lon": -145.05866917168558, "alt_km": 898.1958350462273, "timestamp": "2025-12-27T04:40:45.785464+00:00", "meta": {"OBJECT_NAME": "FENGYUN 1C DEB", "OBJECT_ID": "1999-025BCS", "EPOCH": "2025-12-25T01:12:10.495008", "MEAN_MOTION": 14.09669303, "ECCENTRICITY": 0.01647769, "INCLINATION": 97.5649, "RA_OF_ASC_NODE": 25.7475, "ARG_OF_PERICENTER": 30.4254, "MEAN_ANOMALY": 24.7095, "EPHEMERIS_TYPE": 0, "CLASSIFICATION_TYPE": "U", "NORAD_CAT_ID": 31000, "ELEMENT_SET_NO": 999, "REV_AT_EPOCH": 70130, "BSTAR": 0.00053920853, "MEAN_MOTION_DOT": 1.039e-05, "MEAN_MOTION_DDOT": 0}, "tle": {"line1": "1 31000U 99025BCS 25359.05012147  .00001039  00000+0  53921-3 0  9998", "line2": "2 31000  97.5649  25.7475 0164776  30.4254  24.7095 14.09669303701304"}}, "geometry": {"type": "Point", "coordinates": [-145.05866917168558, 44.061268686592285]}}, {"type": "Feature", "properties": {"norad_id": 31001, "name": "FENGYUN 1C DEB", "group": "fengyun-1c-debris", "lat": -11.14021961604275, "lon": 53.50256194298837, "alt_km": 735.3226260255369, "timestamp": "2025-12-27T04:40:45.785474+00:00", "meta": {"OBJECT_NAME": "FENGYUN 1C DEB", "OBJECT_ID": "1999-025BCT", "EPOCH": "2025-12-26T21:09:14.847840", "MEAN_MOTION": 14.42897691, "ECCENTRICITY": 0.0147284, "INCLINATION": 99.2713, "RA_OF_ASC_NODE": 235.005, "ARG_OF_PERICENTER": 111.0611, "MEAN_ANOMALY": 250.6398, "EPHEMERIS_TYPE": 0, "CLASSIFICATION_TYPE": "U", "NORAD_CAT_ID": 31001, "ELEMENT_SET_NO": 999, "REV_AT_EPOCH": 98410, "BSTAR": 0.00038466649, "MEAN_MOTION_DOT": 1.409e-05, "MEAN_MOTION_DDOT": 0}, "tle": {"line1": "1 31001U 99025BCT 25360.88142185  .00001409  00000+0  38467-3 0  9997", "line2": "2 31001  99.2713 235.0050 0147284 111.0611 250.6398 14.42897691984106"}}, "geometry": {"type": "Point", "coordinates": [53.50256194298837, -11.14021961604275]}}, {"type": "Feature", "properties": {"norad_id": 31002, "name": "FENGYUN 1C DEB", "group": "fengyun-1c-debris", "lat": 55.97868669860828, "lon": -153.87980164002184, "alt_km": 962.4493821769438, "timestamp": "2025-12-27T04:40:45.785484+00:00", "meta": {"OBJECT_NAME": "FENGYUN 1C DEB", "OBJECT_ID": "1999-025BCU", "EPOCH": "2025-12-26T18:39:19.018080", "MEAN_MOTION": 13.99216447, "ECCENTRICITY": 0.00983968, "INCLINATION": 98.8853, "RA_OF_ASC_NODE": 12.316, "ARG_OF_PERICENTER": 308.862, "MEAN_ANOMALY": 231.2333, "EPHEMERIS_TYPE": 0, "CLASSIFICATION_TYPE": "U", "NORAD_CAT_ID": 31002, "ELEMENT_SET_NO": 999, "REV_AT_EPOCH": 95801, "BSTAR": 0.00041747306, "MEAN_MOTION_DOT": 5.88e-06, "MEAN_MOTION_DDOT": 0}, "tle": {"line1": "1 31002U 99025BCU 25360.77730345  .00000588  00000+0  41747-3 0  9999", "line2": "2 31002  98.8853  12.3160 0098396 308.8620 231.2333 13.99216447958010"}}, "geometry": {"type": "Point", "coordinates": [-153.87980164002184, 55.97868669860828]}}, {"type": "Feature", "properties": {"norad_id": 31003, "name": "FENGYUN 1C DEB", "group": "fengyun-1c-debris", "lat": 4.5142830288570845, "lon": 77.38455985197693, "alt_km": 841.2486935151001, "timestamp": "2025-12-27T04:40:45.785494+00:00", "meta": {"OBJECT_NAME": "FENGYUN 1C DEB", "OBJECT_ID": "1999-025BCV", "EPOCH": "2025-12-26T03:22:35.090688", "MEAN_MOTION": 14.2477797, "ECCENTRICITY": 0.00421242, "INCLINATION": 98.8421, "RA_OF_ASC_NODE": 77.0273, "ARG_OF_PERICENTER": 176.7656, "MEAN_ANOMALY": 183.3802, "EPHEMERIS_TYPE": 0, "CLASSIFICATION_TYPE": "U", "NORAD_CAT_ID": 31003, "ELEMENT_SET_NO": 999, "REV_AT_EPOCH": 96700, "BSTAR": 0.0013638884, "MEAN_MOTION_DOT": 3.164e-05, "MEAN_MOTION_DDOT": 0}, "tle": {"line1": "1 31003U 99025BCV 25360.14068392  .00003164  00000+0  13639-2 0  9998", "line2": "2 31003  98.8421  77.0273 0042124 176.7656 183.3802 14.24777970967003"}}, "geometry": {"type": "Point", "coordinates": [77.38455985197693, 4.5142830288570845]}}, {"type": "Feature", "properties": {"norad_id": 31005, "name": "FENGYUN 1C DEB", "group": "fengyun-1c-debris", "lat": -61.32916633573058, "lon": 149.83036796517453, "alt_km": 829.0698539619825, "timestamp": "2025-12-27T04:40:45.785504+00:00", "meta": {"OBJECT_NAME": "FENGYUN 1C DEB", "OBJECT_ID": "1999-025BCX", "EPOCH": "2025-12-25T08:06:17.154720", "MEAN_MOTION": 13.83315917, "ECCENTRICITY": 0.0181141, "INCLINATION": 98.6135, "RA_OF_ASC_NODE": 132.0365, "ARG_OF_PERICENTER": 290.9603, "MEAN_ANOMALY": 122.0502, "EPHEMERIS_TYPE": 0, "CLASSIFICATION_TYPE": "U", "NORAD_CAT_ID": 31005, "ELEMENT_SET_NO": 999, "REV_AT_EPOCH": 94455, "BSTAR": 0.0012807, "MEAN_MOTION_DOT": 1.556e-05, "MEAN_MOTION_DDOT": 0}, "tle": {"line1": "1 31005U 99025BCX 25359.33769855  .00001556  00000+0  12807-2 0  9990", "line2": "2 31005  98.6135 132.0365 0181141 290.9603 122.0502 13.83315917944558"}}, "geometry": {"type": "Point", "coordinates": [149.83036796517453, -61.32916633573058]}}, {"type": "Feature", "properties": {"norad_id": 31007, "name": "FENGYUN 1C DEB", "group": "fengyun-1c-debris", "lat": -33.9245147755269, "lon": -1.8937900339944636, "alt_km": 661.1301971910716, "timestamp": "2025-12-27T04:40:45.785514+00:00", "meta": {"OBJECT_NAME": "FENGYUN 1C DEB", "OBJECT_ID": "1999-025BCZ", "EPOCH": "2025-12-26T05:47:25.251072", "MEAN_MOTION": 14.58925685, "ECCENTRICITY": 0.006635, "INCLINATION": 98.0887, "RA_OF_ASC_NODE": 351.6885, "ARG_OF_PERICENTER": 356.4462, "MEAN_ANOMALY": 3.6258, "EPHEMERIS_TYPE": 0, "CLASSIFICATION_TYPE": "U", "NORAD_CAT_ID": 31007, "ELEMENT_SET_NO": 999, "REV_AT_EPOCH": 98291, "BSTAR": 0.0024558, "MEAN_MOTION_DOT": 0.00011838, "MEAN_MOTION_DDOT": 0}, "tle": {"line1": "1 31007U 99025BCZ 25360.24126448  .00011838  00000+0  24558-2 0  9999", "line2": "2 31007  98.0887 351.6885 0066350 356.4462   3.6258 14.58925685982915"}}, "geometry": {"type": "Point", "coordinates": [-1.8937900339944636, -33.9245147755269]}}, {"type": "Feature", "properties": {"norad_id": 31009, "name": "FENGYUN 1C DEB", "group": "fengyun-1c-debris", "lat": 76.56103763265598, "lon": -44.328103412548266, "alt_km": 902.4178707586616, "timestamp": "2025-12-27T04:40:45.785524+00:00", "meta": {"OBJECT_NAME": "FENGYUN 1C DEB", "OBJECT_ID": "1999-025BDB", "EPOCH": "2025-12-26T23:25:40.076256", "MEAN_MOTION": 14.00368433, "ECCENTRICITY": 0.00533385, "INCLINATION": 98.8965, "RA_OF_ASC_NODE": 356.4159, "ARG_OF_PERICENTER": 197.0378, "MEAN_ANOMALY": 220.9032, "EPHEMERIS_TYPE": 0, "CLASSIFICATION_TYPE": "U", "NORAD_CAT_ID": 31009, "ELEMENT_SET_NO": 999, "REV_AT_EPOCH": 96060, "BSTAR": 0.00010810256, "MEAN_MOTION_DOT": 1.19e-06, "MEAN_MOTION_DDOT": 0}, "tle": {"line1": "1 31009U 99025BDB 25360.97615829  .00000119  00000+0  10810-3 0  9994", "line2": "2 31009  98.8965 356.4159 0053338 197.0378 220.9032 14.00368433960601"}}, "geometry": {"type": "Point", "coordinates": [-44.328103412548266, 76.56103763265598]}}]}